      2.10          N: GNSS NAV DATA                        RINEX VERSION / TYPE
fic2rin                                 06/22/2018 00:07:33 PGM / RUN BY / DATE
                                                            END OF HEADER
 2 18  6 21  1 59 44.0 8.001737296581e-05-1.091393642128e-11 0.000000000000e+00
    2.200000000000e+01 1.406250000000e+00 5.129856536258e-09-1.210154044619e+00
    5.625188350677e-07 1.789676886983e-02 5.349516868591e-06 5.153757274628e+03
    3.527840000000e+05 5.587935447693e-08 3.096584965079e+00 4.079192876816e-07
    9.509403801295e-01 2.726250000000e+02-1.850491079924e+00-8.525355115261e-09
    3.167989102319e-10 1.000000000000e+00 2.006000000000e+03 0.000000000000e+00
    2.400000000000e+00 0.000000000000e+00-2.048909664154e-08 2.200000000000e+01
    3.456060000000e+05 4.000000000000e+00
 4 18  6 21  1 59 44.0 7.169088348746e-05 3.524291969370e-12 0.000000000000e+00
    2.300000000000e+01-3.003125000000e+01 5.341293914902e-09 1.851744840217e+00
   -1.624226570129e-06 9.837973979302e-03 6.947666406631e-06 5.153707586288e+03
    3.527840000000e+05-1.192092895508e-07 1.086812082977e+00-1.452863216400e-07
    9.787720893748e-01 2.564687500000e+02 9.331934136971e-01-8.033191757538e-09
   -3.132273328900e-10 1.000000000000e+00 2.006000000000e+03 0.000000000000e+00
    2.400000000000e+00 6.300000000000e+01-1.955777406693e-08 2.300000000000e+01
    3.456060000000e+05 4.000000000000e+00
19 18  6 21  1 59 44.0-4.267804324627e-04 3.069544618484e-12 0.000000000000e+00
    2.300000000000e+01 1.425000000000e+01 3.940521281385e-09-2.815994238995e+00
    4.898756742477e-07 9.895917144604e-03 8.488073945045e-06 5.153721662521e+03
    3.527840000000e+05 1.024454832077e-07 2.203205725642e+00-3.725290298462e-08
    9.803641670284e-01 2.238437500000e+02 1.210504147248e+00-7.684605808963e-09
    3.100129132822e-10 1.000000000000e+00 2.006000000000e+03 0.000000000000e+00
    2.400000000000e+00 0.000000000000e+00-1.536682248116e-08 2.300000000000e+01
    3.456060000000e+05 4.000000000000e+00
13 18  6 21  1 59 44.0-9.328173473477e-05 3.410605131648e-13 0.000000000000e+00
    5.100000000000e+01 4.621875000000e+01 4.369824877889e-09-6.966889396165e-01
    2.412125468254e-06 3.321587224491e-03 1.022219657898e-05 5.153666788101e+03
    3.527840000000e+05-3.539025783539e-08-9.163705623750e-01 2.607703208923e-08
    9.682514291585e-01 1.825312500000e+02 1.552997814444e+00-8.003190507866e-09
    7.143154683922e-12 1.000000000000e+00 2.006000000000e+03 0.000000000000e+00
    2.400000000000e+00 0.000000000000e+00-1.117587089539e-08 5.100000000000e+01
    3.456060000000e+05 4.000000000000e+00
 1 18  6 21  2  0  0.0-5.822535604239e-05-3.524291969370e-12 0.000000000000e+00
    5.900000000000e+01-7.031250000000e+00 4.541260590303e-09-1.537920426273e+00
   -4.302710294724e-07 7.914166199043e-03 5.155801773071e-06 5.153666769028e+03
    3.528000000000e+05 1.117587089539e-07-3.124985835769e+00-3.352761268616e-08
    9.718779650411e-01 2.823125000000e+02 6.443502379909e-01-8.112837932264e-09
    3.796586714504e-10 1.000000000000e+00 2.006000000000e+03 0.000000000000e+00
    3.400000000000e+00 0.000000000000e+00 5.587935447693e-09 5.900000000000e+01
    3.456060000000e+05 4.000000000000e+00
 5 18  6 21  2  0  0.0-5.819369107485e-06 5.684341886081e-13 0.000000000000e+00
    6.400000000000e+01-5.659375000000e+01 5.159857785931e-09 1.465353049356e+00
   -2.754852175713e-06 5.427807453088e-03 8.162111043930e-06 5.153726503372e+03
    3.528000000000e+05-4.656612873077e-08-2.104598769718e+00 1.955777406693e-07
    9.478445309464e-01 2.175000000000e+02 6.173114054750e-01-8.404278643368e-09
   -2.217949529358e-10 1.000000000000e+00 2.006000000000e+03 0.000000000000e+00
    2.400000000000e+00 0.000000000000e+00-1.117587089539e-08 6.400000000000e+01
    3.456060000000e+05 4.000000000000e+00
 3 18  6 21  2  0  0.0 9.269127622247e-05 6.593836587854e-12 0.000000000000e+00
    5.500000000000e+01-6.034375000000e+01 4.739483132782e-09-2.422795216746e+00
   -3.129243850708e-06 1.471320400015e-03 7.865950465202e-06 5.153735900879e+03
    3.528000000000e+05 0.000000000000e+00-2.082426677978e+00-1.098960638046e-07
    9.609404477811e-01 2.264062500000e+02 4.447289642436e-01-8.148196547949e-09
   -1.525063525017e-10 1.000000000000e+00 2.006000000000e+03 0.000000000000e+00
    2.400000000000e+00 0.000000000000e+00 2.328306436539e-09 5.500000000000e+01
    3.456060000000e+05 4.000000000000e+00
 8 18  6 21  2  0  0.0-1.054909080267e-04-1.250555214938e-12 0.000000000000e+00
    3.300000000000e+01-2.031250000000e+00 4.144815505346e-09 9.463382373461e-01
   -7.450580596924e-09 3.459205850959e-03 8.894130587578e-06 5.153586086273e+03
    3.528000000000e+05 1.154839992523e-07 2.093392041884e+00-2.048909664154e-08
    9.692846413845e-01 2.127500000000e+02-4.137413266955e-01-7.930330330090e-09
    2.010798043524e-10 1.000000000000e+00 2.006000000000e+03 0.000000000000e+00
    2.400000000000e+00 0.000000000000e+00 5.122274160385e-09 3.300000000000e+01
    3.456060000000e+05 4.000000000000e+00
 7 18  6 21  2  0  0.0 1.719109714031e-04-6.252776074689e-12 0.000000000000e+00
    3.700000000000e+01 4.759375000000e+01 4.634478758928e-09-2.214264916724e+00
    2.350658178329e-06 1.177618268412e-02 5.619600415230e-06 5.153656309128e+03
    3.528000000000e+05 7.636845111847e-08 2.893878859385e-02-1.154839992523e-07
    9.586706265139e-01 2.700625000000e+02-2.522282251020e+00-8.090336995010e-09
    8.000333245992e-11 1.000000000000e+00 2.006000000000e+03 0.000000000000e+00
    2.400000000000e+00 0.000000000000e+00-1.117587089539e-08 3.700000000000e+01
    3.456060000000e+05 4.000000000000e+00
 6 18  6 21  2  0  0.0 3.943075425923e-04-3.183231456205e-12 0.000000000000e+00
    9.400000000000e+01-9.375000000000e+00 4.614120768079e-09-1.385709226089e+00
   -5.010515451431e-07 1.113843987696e-03 5.587935447693e-06 5.153644845963e+03
    3.528000000000e+05-3.352761268616e-08-3.133310439437e+00 5.587935447693e-09
    9.715889436308e-01 2.817812500000e+02-1.048142893736e+00-8.162840015051e-09
    2.657253542419e-10 1.000000000000e+00 2.006000000000e+03 0.000000000000e+00
    2.400000000000e+00 0.000000000000e+00 4.656612873077e-09 9.400000000000e+01
    3.456060000000e+05 4.000000000000e+00
25 18  6 21  2  0  0.0-6.040898151696e-04-5.911715561524e-12 0.000000000000e+00
    2.800000000000e+01-2.640625000000e+01 4.092313318419e-09 3.008266480865e+00
   -1.348555088043e-06 7.484577246942e-03 6.942078471184e-06 5.153632076263e+03
    3.528000000000e+05 7.264316082001e-08 1.061761645789e+00-3.539025783539e-08
    9.739647284432e-01 2.510312500000e+02 8.700413599835e-01-7.892828767999e-09
   -2.717970357232e-10 1.000000000000e+00 2.006000000000e+03 0.000000000000e+00
    2.400000000000e+00 0.000000000000e+00 6.053596735001e-09 2.800000000000e+01
    3.456060000000e+05 4.000000000000e+00
15 18  6 21  2  0  0.0-3.522550687194e-04 6.821210263297e-13 0.000000000000e+00
    2.700000000000e+01 2.415625000000e+01 5.327721921003e-09-2.358582709808e-01
    1.244246959686e-06 1.031633268576e-02 1.046620309353e-05 5.153763929367e+03
    3.528000000000e+05 2.235174179077e-08-1.119810085956e+00 1.434236764908e-07
    9.279581331353e-01 1.574375000000e+02 6.811467106888e-01-8.550713314388e-09
   -9.536111503035e-11 1.000000000000e+00 2.006000000000e+03 0.000000000000e+00
    2.400000000000e+00 0.000000000000e+00-1.117587089539e-08 2.700000000000e+01
    3.456060000000e+05 4.000000000000e+00
11 18  6 21  2  0  0.0-7.331408560276e-04 1.250555214938e-12 0.000000000000e+00
    3.100000000000e+01 2.325000000000e+01 5.699165964567e-09-2.213267237316e+00
    1.514330506325e-06 1.690573606174e-02 5.653128027916e-06 5.153641956329e+03
    3.528000000000e+05 1.434236764908e-07 2.729777248305e+00 2.123415470123e-07
    9.058856675799e-01 2.347500000000e+02 1.771782491407e+00-8.513568910032e-09
    4.282321233011e-10 1.000000000000e+00 2.006000000000e+03 0.000000000000e+00
    2.400000000000e+00 0.000000000000e+00-1.210719347000e-08 3.100000000000e+01
    3.456060000000e+05 4.000000000000e+00
16 18  6 21  2  0  0.0 2.068746834993e-05-1.364242052659e-12 0.000000000000e+00
    2.400000000000e+01-2.746875000000e+01 3.881947412977e-09 1.584192934737e+00
   -1.376494765282e-06 1.000234798994e-02 7.361173629761e-06 5.153651077271e+03
    3.528000000000e+05-1.098960638046e-07 1.140748553008e+00-1.117587089539e-08
    9.867236855050e-01 2.548125000000e+02 5.228519027661e-01-7.907472235101e-09
   -3.853731951976e-10 1.000000000000e+00 2.006000000000e+03 0.000000000000e+00
    2.400000000000e+00 0.000000000000e+00-1.071020960808e-08 2.400000000000e+01
    3.456060000000e+05 4.000000000000e+00
10 18  6 21  2  0  0.0 1.884945668280e-04 5.684341886081e-13 0.000000000000e+00
    2.600000000000e+01-6.337500000000e+01 4.761984070036e-09 2.654836503317e+00
   -3.235414624214e-06 3.575622336939e-03 7.927417755127e-06 5.153665065765e+03
    3.528000000000e+05-3.725290298462e-08-2.085868447308e+00-5.215406417847e-08
    9.610300588280e-01 2.286875000000e+02-2.745161138295e+00-8.112480774530e-09
   -2.135803250493e-10 1.000000000000e+00 2.006000000000e+03 0.000000000000e+00
    2.400000000000e+00 0.000000000000e+00 1.862645149231e-09 2.600000000000e+01
    3.456060000000e+05 4.000000000000e+00
27 18  6 21  2  0  0.0 3.650286234915e-04-1.705302565824e-12 0.000000000000e+00
    3.200000000000e+01-1.437500000000e+00 4.025881979858e-09 6.393112093523e-01
   -5.587935447693e-08 5.988808232360e-03 8.990988135338e-06 5.153687284470e+03
    3.528000000000e+05 2.421438694000e-08 2.102046855420e+00 9.499490261078e-08
    9.774858347457e-01 2.174687500000e+02 4.397841928797e-01-7.890685821594e-09
    1.671498196038e-10 1.000000000000e+00 2.006000000000e+03 0.000000000000e+00
    2.400000000000e+00 0.000000000000e+00 1.396983861923e-09 3.200000000000e+01
    3.456060000000e+05 4.000000000000e+00
